ONEWEB-0667             
1 55827U 23029AH  26165.22464594 -.00000009  00000+0 -54720-4 0  9991
2 55827  87.9196 275.0205 0001806  97.6070 262.5269 13.20771785160756
ONEWEB-0669             
1 55828U 23029AJ  26165.06807793 -.00000053  00000+0 -16235-3 0  9993
2 55828  87.9190 275.0631 0002298  88.0781 272.0616 13.20771623160734
ONEWEB-0670             
1 55829U 23029AK  26165.09146668  .00000084  00000+0  19292-3 0  9992
2 55829  87.8949 290.3583 0001705  88.5139 271.6186 13.14502990159025
ONEWEB-0671             
1 55830U 23029AL  26165.10664107  .00000066  00000+0  13258-3 0  9995
2 55830  87.9166 305.5895 0001690  96.0795 264.0531 13.19724719158499
ONEWEB-0672             
1 55831U 23029AM  26165.29029117  .00000049  00000+0  89158-4 0  9996
2 55831  87.9192 275.0120 0002239  99.8216 260.3170 13.20772185160763
ONEWEB-0673             
1 55832U 23029AN  26165.31119128 -.00000016  00000+0 -72956-4 0  9996
2 55832  87.9172 305.5402 0001725  95.5033 264.6296 13.19726662158527
ONEWEB-0674             
1 55833U 23029AP  26165.28809523 -.00000015  00000+0 -75590-4 0  9994
2 55833  87.8953 290.2958 0001722  87.1615 272.9712 13.14503969159030
ONEWEB-0675             
1 55834U 23029AQ  26164.87130421  .00000014  00000+0  13911-5 0  9990
2 55834  87.9165 305.6379 0002087 104.7013 255.4351 13.19724358158483
ONEWEB-0720             
1 55835U 23029AR  26165.31830077  .00000071  00000+0  14449-3 0  9993
2 55835  87.9164 305.5488 0001589 102.9667 257.1643 13.19725024158466
ONEWEB-0537             
1 56046U 23043A   26165.23071895  .00000082  00000+0  18014-3 0  9994
2 56046  87.9098 229.3587 0002268  99.7193 260.4194 13.16594272158578
ONEWEB-0538             
1 56047U 23043B   26165.22438562  .00000119  00000+0  27785-3 0  9998
2 56047  87.9099 229.3624 0002110 105.3964 254.7400 13.16594619158580
ONEWEB-0546             
1 56048U 23043C   26165.21172042  .00000022  00000+0  24876-4 0  9998
2 56048  87.9099 229.3649 0002767  98.3792 261.7653 13.16594929158577
ONEWEB-0547             
1 56049U 23043D   26165.22026922  .00000072  00000+0  14213-3 0  9993
2 56049  87.9260 244.5642 0001939 103.4393 256.6957 13.21826062157835
ONEWEB-0548             
1 56050U 23043E   26165.23624591  .00000077  00000+0  16706-3 0  9996
2 56050  87.9096 229.3563 0002025  85.0835 275.0527 13.16596493158576
ONEWEB-0549             
1 56051U 23043F   26165.21438603  .00000081  00000+0  16560-3 0  9995
2 56051  87.9253 244.5721 0002060 110.0638 250.0718 13.21825720157833
ONEWEB-0550             
1 56052U 23043G   26165.27663591  .00000030  00000+0  41741-4 0  9992
2 56052  87.9257 244.5572 0001931  93.4731 266.6623 13.21825992157846
ONEWEB-0551             
1 56053U 23043H   26165.26505258  .00000141  00000+0  34015-3 0  9995
2 56053  87.9001 259.8083 0001866 110.5750 249.5581 13.15549541156016
ONEWEB-0552             
1 56054U 23043J   26165.27156467  .00000020  00000+0  17964-4 0  9992
2 56054  87.9252 244.5640 0001808  99.8312 260.3027 13.21828136157849
ONEWEB-0553             
1 56055U 23043K   26165.21805009 -.00000001  00000+0 -37229-4 0  9997
2 56055  87.9098 229.3641 0002450  95.2719 264.8692 13.16594451158588
ONEWEB-0554             
1 56056U 23043L   26165.20539378  .00000665  00000+0  17063-2 0  9996
2 56056  87.9095 229.3758 0001972  82.9483 277.1873 13.16591210158560
ONEWEB-0555             
1 56057U 23043M   26165.16736911  .00000169  00000+0  40717-3 0  9996
2 56057  87.9101 229.3711 0002662  96.5385 263.6049 13.16596592158560
ONEWEB-0557             
1 56058U 23043N   26165.10563536  .00000065  00000+0  13642-3 0  9994
2 56058  87.9101 229.3934 0002861  74.4354 285.7093 13.16594515158556
ONEWEB-0558             
1 56059U 23043P   26165.26483581  .00000090  00000+0  18578-3 0  9994
2 56059  87.9254 244.5601 0002133 108.1561 251.9806 13.21828106157854
ONEWEB-0559             
1 56060U 23043Q   26165.25305540  .00000069  00000+0  13634-3 0  9997
2 56060  87.9258 244.5573 0001895 104.3541 255.7804 13.21828114157868
ONEWEB-0566             
1 56061U 23043R   26165.24634656  .00000100  00000+0  21070-3 0  9999
2 56061  87.9257 244.5568 0001871 107.8018 252.3320 13.21827343157840
ONEWEB-0568             
1 56062U 23043S   26165.19905381  .00000068  00000+0  14532-3 0  9998
2 56062  87.9099 229.3645 0002376  96.7306 263.4096 13.16594824158583
ONEWEB-0574             
1 56063U 23043T   26165.23960694 -.00000026  00000+0 -93913-4 0  9999
2 56063  87.9268 244.5612 0002114  94.1952 265.9424 13.21826201157881
ONEWEB-0575             
1 56064U 23043U   26165.19272232  .00000049  00000+0  93963-4 0  9997
2 56064  87.9100 229.3622 0002326  88.7901 271.3496 13.16594386158574
ONEWEB-0576             
1 56065U 23043V   26165.17371611  .00000166  00000+0  40061-3 0  9997
2 56065  87.9102 229.3737 0002166  92.2008 267.9371 13.16594123158565
ONEWEB-0577             
1 56066U 23043W   26164.87606704  .00000035  00000+0  57142-4 0  9992
2 56066  87.9103 229.4305 0002331  78.3734 281.7658 13.16593765158556
