OBJECT_NAME,OBJECT_ID,EPOCH,MEAN_MOTION,ECCENTRICITY,INCLINATION,RA_OF_ASC_NODE,ARG_OF_PERICENTER,MEAN_ANOMALY,EPHEMERIS_TYPE,CLASSIFICATION_TYPE,NORAD_CAT_ID,ELEMENT_SET_NO,REV_AT_EPOCH,BSTAR,MEAN_MOTION_DOT,MEAN_MOTION_DDOT
ONEWEB-0667,2023-029AH,2026-06-14T05:23:29.409216,13.20771785,.00018062,87.9196,275.0205,97.6070,262.5269,0,U,55827,999,16075,-.54720037E-4,-.9E-7,0
ONEWEB-0669,2023-029AJ,2026-06-14T01:38:01.933152,13.20771623,.00022981,87.9190,275.0631,88.0781,272.0616,0,U,55828,999,16073,-.16235432E-3,-.53E-6,0
ONEWEB-0670,2023-029AK,2026-06-14T02:11:42.721152,13.14502990,.00017052,87.8949,290.3583,88.5139,271.6186,0,U,55829,999,15902,.1929235E-3,.84E-6,0
ONEWEB-0671,2023-029AL,2026-06-14T02:33:33.788448,13.19724719,.000169,87.9166,305.5895,96.0795,264.0531,0,U,55830,999,15849,.13258087E-3,.66E-6,0
ONEWEB-0672,2023-029AM,2026-06-14T06:58:01.157088,13.20772185,.00022394,87.9192,275.0120,99.8216,260.3170,0,U,55831,999,16076,.89158106E-4,.49E-6,0
ONEWEB-0673,2023-029AN,2026-06-14T07:28:06.926592,13.19726662,.00017252,87.9172,305.5402,95.5033,264.6296,0,U,55832,999,15852,-.72956125E-4,-.16E-6,0
ONEWEB-0674,2023-029AP,2026-06-14T06:54:51.427872,13.14503969,.00017229,87.8953,290.2958,87.1615,272.9712,0,U,55833,999,15903,-.75589677E-4,-.15E-6,0
ONEWEB-0675,2023-029AQ,2026-06-13T20:54:40.683744,13.19724358,.00020874,87.9165,305.6379,104.7013,255.4351,0,U,55834,999,15848,.1391117E-5,.14E-6,0
ONEWEB-0720,2023-029AR,2026-06-14T07:38:21.186528,13.19725024,.00015899,87.9164,305.5488,102.9667,257.1643,0,U,55835,999,15846,.14448634E-3,.71E-6,0
ONEWEB-0537,2023-043A,2026-06-14T05:32:14.117280,13.16594272,.00022685,87.9098,229.3587,99.7193,260.4194,0,U,56046,999,15857,.18013764E-3,.82E-6,0
ONEWEB-0538,2023-043B,2026-06-14T05:23:06.917568,13.16594619,.00021103,87.9099,229.3624,105.3964,254.7400,0,U,56047,999,15858,.27785263E-3,.119E-5,0
ONEWEB-0546,2023-043C,2026-06-14T05:04:52.644288,13.16594929,.00027672,87.9099,229.3649,98.3792,261.7653,0,U,56048,999,15857,.24875565E-4,.22E-6,0
ONEWEB-0547,2023-043D,2026-06-14T05:17:11.260608,13.21826062,.00019394,87.9260,244.5642,103.4393,256.6957,0,U,56049,999,15783,.14212642E-3,.72E-6,0
ONEWEB-0548,2023-043E,2026-06-14T05:40:11.646624,13.16596493,.0002025,87.9096,229.3563,85.0835,275.0527,0,U,56050,999,15857,.16705863E-3,.77E-6,0
ONEWEB-0549,2023-043F,2026-06-14T05:08:42.952992,13.21825720,.00020605,87.9253,244.5721,110.0638,250.0718,0,U,56051,999,15783,.16560409E-3,.81E-6,0
ONEWEB-0550,2023-043G,2026-06-14T06:38:21.342624,13.21825992,.00019318,87.9257,244.5572,93.4731,266.6623,0,U,56052,999,15784,.41741032E-4,.3E-6,0
ONEWEB-0551,2023-043H,2026-06-14T06:21:40.542912,13.15549541,.0001866,87.9001,259.8083,110.5750,249.5581,0,U,56053,999,15601,.34015051E-3,.141E-5,0
ONEWEB-0552,2023-043J,2026-06-14T06:31:03.187488,13.21828136,.00018089,87.9252,244.5640,99.8312,260.3027,0,U,56054,999,15784,.17963867E-4,.2E-6,0
ONEWEB-0553,2023-043K,2026-06-14T05:13:59.527776,13.16594451,.00024504,87.9098,229.3641,95.2719,264.8692,0,U,56055,999,15858,-.37229364E-4,-.1E-7,0
ONEWEB-0554,2023-043L,2026-06-14T04:55:46.022592,13.16591210,.00019729,87.9095,229.3758,82.9483,277.1873,0,U,56056,999,15856,.17062937E-2,.665E-5,0
ONEWEB-0555,2023-043M,2026-06-14T04:01:00.691104,13.16596592,.00026623,87.9101,229.3711,96.5385,263.6049,0,U,56057,999,15856,.40717467E-3,.169E-5,0
ONEWEB-0557,2023-043N,2026-06-14T02:32:06.895104,13.16594515,.00028618,87.9101,229.3934,74.4354,285.7093,0,U,56058,999,15855,.13642033E-3,.65E-6,0
ONEWEB-0558,2023-043P,2026-06-14T06:21:21.813984,13.21828106,.00021338,87.9254,244.5601,108.1561,251.9806,0,U,56059,999,15785,.18577562E-3,.9E-6,0
ONEWEB-0559,2023-043Q,2026-06-14T06:04:23.986560,13.21828114,.00018958,87.9258,244.5573,104.3541,255.7804,0,U,56060,999,15786,.13633863E-3,.69E-6,0
ONEWEB-0566,2023-043R,2026-06-14T05:54:44.342784,13.21827343,.0001871,87.9257,244.5568,107.8018,252.3320,0,U,56061,999,15784,.21070277E-3,.1E-5,0
ONEWEB-0568,2023-043S,2026-06-14T04:46:38.249184,13.16594824,.0002376,87.9099,229.3645,96.7306,263.4096,0,U,56062,999,15858,.14532157E-3,.68E-6,0
ONEWEB-0574,2023-043T,2026-06-14T05:45:02.039616,13.21826201,.00021141,87.9268,244.5612,94.1952,265.9424,0,U,56063,999,15788,-.93912767E-4,-.26E-6,0
ONEWEB-0575,2023-043U,2026-06-14T04:37:31.208448,13.16594386,.00023266,87.9100,229.3622,88.7901,271.3496,0,U,56064,999,15857,.93963338E-4,.49E-6,0
ONEWEB-0576,2023-043V,2026-06-14T04:10:09.071904,13.16594123,.00021667,87.9102,229.3737,92.2008,267.9371,0,U,56065,999,15856,.40060541E-3,.166E-5,0
ONEWEB-0577,2023-043W,2026-06-13T21:01:32.192256,13.16593765,.0002331,87.9103,229.4305,78.3734,281.7658,0,U,56066,999,15855,.57142E-4,.35E-6,0
